STARLINK-36121          
1 66940U 25286R   25360.58337963 -.02075155  00000+0 -34087-1 0  9997
2 66940  53.1593 341.5274 0001170  74.0645 316.7150 15.55030524  4214
STARLINK-36088          
1 66941U 25286S   25360.58337963 -.02052645  00000+0 -31321-1 0  9995
2 66941  53.1591 341.4801 0001055  74.4748 339.4830 15.56968332  4213
STARLINK-36100          
1 66942U 25286T   25360.58337963 -.02078482  00000+0 -34147-1 0  9992
2 66942  53.1589 341.5236 0001052  67.4542 325.2425 15.55032507  4145
STARLINK-36109          
1 66943U 25286U   25360.58337963 -.02077378  00000+0 -34130-1 0  9998
2 66943  53.1591 341.5194 0000948  87.7516 306.8665 15.55030572  4142
STARLINK-36112          
1 66944U 25286V   25360.58337963 -.02078837  00000+0 -34153-1 0  9995
2 66944  53.1591 341.5150 0001184  79.4983 317.0326 15.55031760  4210
STARLINK-36110          
1 66945U 25286W   25360.58337963 -.02080612  00000+0 -34184-1 0  9994
2 66945  53.1594 341.5111 0001043  83.3969 315.0493 15.55034168  4211
STARLINK-36115          
1 66946U 25286X   25360.58337963 -.02075363  00000+0 -34091-1 0  9999
2 66946  53.1595 341.5072 0001139  83.2230 317.1414 15.55030112  4216
STARLINK-36089          
1 66947U 25286Y   25360.58337963 -.02074389  00000+0 -34073-1 0  9997
2 66947  53.1594 341.4983 0001016  74.4698 329.7276 15.55031335  4213
STARLINK-36116          
1 66948U 25286Z   25360.58337963 -.02075957  00000+0 -34102-1 0  9993
2 66948  53.1599 341.5029 0001111  82.5060 319.7757 15.55030457  4217
STARLINK-36096          
1 66949U 25286AA  25360.58337963 -.02073300  00000+0 -34054-1 0  9990
2 66949  53.1591 341.4943 0001014  82.2158 323.8990 15.55030570  4212
STARLINK-36111          
1 66950U 25286AB  25360.58337963 -.02063958  00000+0 -33888-1 0  9994
2 66950  53.1591 341.4866 0001143  74.9913 334.9580 15.55025009  4217
STARLINK-35999          
1 66951U 25286AC  25360.58337963 -.02063486  00000+0 -33880-1 0  9993
2 66951  53.1589 341.4823 0000909  96.8705 314.9963 15.55026015  4210
