CCSDS_OMM_VERS = 2.0
CREATION_DATE  = 
ORIGINATOR     = 

OBJECT_NAME    = STARLINK-36121
OBJECT_ID      = 2025-286R
CENTER_NAME    = EARTH
REF_FRAME      = TEME
TIME_SYSTEM    = UTC
MEAN_ELEMENT_THEORY = SGP/SGP4

EPOCH          = 2025-12-26T14:00:04.000032
MEAN_MOTION    = 15.55030524
ECCENTRICITY   = .00011708
INCLINATION    = 53.1593
RA_OF_ASC_NODE = 341.5274
ARG_OF_PERICENTER = 74.0645
MEAN_ANOMALY   = 316.7150

EPHEMERIS_TYPE = 0
CLASSIFICATION_TYPE = U
NORAD_CAT_ID   = 66940
ELEMENT_SET_NO = 999
REV_AT_EPOCH   = 421
BSTAR          = -.34086728E-1
MEAN_MOTION_DOT = -.2075155E-1
MEAN_MOTION_DDOT = 0

CCSDS_OMM_VERS = 2.0
CREATION_DATE  = 
ORIGINATOR     = 

OBJECT_NAME    = STARLINK-36088
OBJECT_ID      = 2025-286S
CENTER_NAME    = EARTH
REF_FRAME      = TEME
TIME_SYSTEM    = UTC
MEAN_ELEMENT_THEORY = SGP/SGP4

EPOCH          = 2025-12-26T14:00:04.000032
MEAN_MOTION    = 15.56968332
ECCENTRICITY   = .00010556
INCLINATION    = 53.1591
RA_OF_ASC_NODE = 341.4801
ARG_OF_PERICENTER = 74.4748
MEAN_ANOMALY   = 339.4830

EPHEMERIS_TYPE = 0
CLASSIFICATION_TYPE = U
NORAD_CAT_ID   = 66941
ELEMENT_SET_NO = 999
REV_AT_EPOCH   = 421
BSTAR          = -.31320978E-1
MEAN_MOTION_DOT = -.2052645E-1
MEAN_MOTION_DDOT = 0

CCSDS_OMM_VERS = 2.0
CREATION_DATE  = 
ORIGINATOR     = 

OBJECT_NAME    = STARLINK-36100
OBJECT_ID      = 2025-286T
CENTER_NAME    = EARTH
REF_FRAME      = TEME
TIME_SYSTEM    = UTC
MEAN_ELEMENT_THEORY = SGP/SGP4

EPOCH          = 2025-12-26T14:00:04.000032
MEAN_MOTION    = 15.55032507
ECCENTRICITY   = .00010524
INCLINATION    = 53.1589
RA_OF_ASC_NODE = 341.5236
ARG_OF_PERICENTER = 67.4542
MEAN_ANOMALY   = 325.2425

EPHEMERIS_TYPE = 0
CLASSIFICATION_TYPE = U
NORAD_CAT_ID   = 66942
ELEMENT_SET_NO = 999
REV_AT_EPOCH   = 414
BSTAR          = -.34146919E-1
MEAN_MOTION_DOT = -.2078482E-1
MEAN_MOTION_DDOT = 0

CCSDS_OMM_VERS = 2.0
CREATION_DATE  = 
ORIGINATOR     = 

OBJECT_NAME    = STARLINK-36109
OBJECT_ID      = 2025-286U
CENTER_NAME    = EARTH
REF_FRAME      = TEME
TIME_SYSTEM    = UTC
MEAN_ELEMENT_THEORY = SGP/SGP4

EPOCH          = 2025-12-26T14:00:04.000032
MEAN_MOTION    = 15.55030572
ECCENTRICITY   = .00009487
INCLINATION    = 53.1591
RA_OF_ASC_NODE = 341.5194
ARG_OF_PERICENTER = 87.7516
MEAN_ANOMALY   = 306.8665

EPHEMERIS_TYPE = 0
CLASSIFICATION_TYPE = U
NORAD_CAT_ID   = 66943
ELEMENT_SET_NO = 999
REV_AT_EPOCH   = 414
BSTAR          = -.34130216E-1
MEAN_MOTION_DOT = -.2077378E-1
MEAN_MOTION_DDOT = 0

CCSDS_OMM_VERS = 2.0
CREATION_DATE  = 
ORIGINATOR     = 

OBJECT_NAME    = STARLINK-36112
OBJECT_ID      = 2025-286V
CENTER_NAME    = EARTH
REF_FRAME      = TEME
TIME_SYSTEM    = UTC
MEAN_ELEMENT_THEORY = SGP/SGP4

EPOCH          = 2025-12-26T14:00:04.000032
MEAN_MOTION    = 15.55031760
ECCENTRICITY   = .00011844
INCLINATION    = 53.1591
RA_OF_ASC_NODE = 341.5150
ARG_OF_PERICENTER = 79.4983
MEAN_ANOMALY   = 317.0326

EPHEMERIS_TYPE = 0
CLASSIFICATION_TYPE = U
NORAD_CAT_ID   = 66944
ELEMENT_SET_NO = 999
REV_AT_EPOCH   = 421
BSTAR          = -.34152899E-1
MEAN_MOTION_DOT = -.2078837E-1
MEAN_MOTION_DDOT = 0

CCSDS_OMM_VERS = 2.0
CREATION_DATE  = 
ORIGINATOR     = 

OBJECT_NAME    = STARLINK-36110
OBJECT_ID      = 2025-286W
CENTER_NAME    = EARTH
REF_FRAME      = TEME
TIME_SYSTEM    = UTC
MEAN_ELEMENT_THEORY = SGP/SGP4

EPOCH          = 2025-12-26T14:00:04.000032
MEAN_MOTION    = 15.55034168
ECCENTRICITY   = .00010438
INCLINATION    = 53.1594
RA_OF_ASC_NODE = 341.5111
ARG_OF_PERICENTER = 83.3969
MEAN_ANOMALY   = 315.0493

EPHEMERIS_TYPE = 0
CLASSIFICATION_TYPE = U
NORAD_CAT_ID   = 66945
ELEMENT_SET_NO = 999
REV_AT_EPOCH   = 421
BSTAR          = -.34184213E-1
MEAN_MOTION_DOT = -.2080612E-1
MEAN_MOTION_DDOT = 0

CCSDS_OMM_VERS = 2.0
CREATION_DATE  = 
ORIGINATOR     = 

OBJECT_NAME    = STARLINK-36115
OBJECT_ID      = 2025-286X
CENTER_NAME    = EARTH
REF_FRAME      = TEME
TIME_SYSTEM    = UTC
MEAN_ELEMENT_THEORY = SGP/SGP4

EPOCH          = 2025-12-26T14:00:04.000032
MEAN_MOTION    = 15.55030112
ECCENTRICITY   = .00011396
INCLINATION    = 53.1595
RA_OF_ASC_NODE = 341.5072
ARG_OF_PERICENTER = 83.2230
MEAN_ANOMALY   = 317.1414

EPHEMERIS_TYPE = 0
CLASSIFICATION_TYPE = U
NORAD_CAT_ID   = 66946
ELEMENT_SET_NO = 999
REV_AT_EPOCH   = 421
BSTAR          = -.34091467E-1
MEAN_MOTION_DOT = -.2075363E-1
MEAN_MOTION_DDOT = 0

CCSDS_OMM_VERS = 2.0
CREATION_DATE  = 
ORIGINATOR     = 

OBJECT_NAME    = STARLINK-36089
OBJECT_ID      = 2025-286Y
CENTER_NAME    = EARTH
REF_FRAME      = TEME
TIME_SYSTEM    = UTC
MEAN_ELEMENT_THEORY = SGP/SGP4

EPOCH          = 2025-12-26T14:00:04.000032
MEAN_MOTION    = 15.55031335
ECCENTRICITY   = .00010166
INCLINATION    = 53.1594
RA_OF_ASC_NODE = 341.4983
ARG_OF_PERICENTER = 74.4698
MEAN_ANOMALY   = 329.7276

EPHEMERIS_TYPE = 0
CLASSIFICATION_TYPE = U
NORAD_CAT_ID   = 66947
ELEMENT_SET_NO = 999
REV_AT_EPOCH   = 421
BSTAR          = -.34073364E-1
MEAN_MOTION_DOT = -.2074389E-1
MEAN_MOTION_DDOT = 0

CCSDS_OMM_VERS = 2.0
CREATION_DATE  = 
ORIGINATOR     = 

OBJECT_NAME    = STARLINK-36116
OBJECT_ID      = 2025-286Z
CENTER_NAME    = EARTH
REF_FRAME      = TEME
TIME_SYSTEM    = UTC
MEAN_ELEMENT_THEORY = SGP/SGP4

EPOCH          = 2025-12-26T14:00:04.000032
MEAN_MOTION    = 15.55030457
ECCENTRICITY   = .00011117
INCLINATION    = 53.1599
RA_OF_ASC_NODE = 341.5029
ARG_OF_PERICENTER = 82.5060
MEAN_ANOMALY   = 319.7757

EPHEMERIS_TYPE = 0
CLASSIFICATION_TYPE = U
NORAD_CAT_ID   = 66948
ELEMENT_SET_NO = 999
REV_AT_EPOCH   = 421
BSTAR          = -.34102305E-1
MEAN_MOTION_DOT = -.2075957E-1
MEAN_MOTION_DDOT = 0

CCSDS_OMM_VERS = 2.0
CREATION_DATE  = 
ORIGINATOR     = 

OBJECT_NAME    = STARLINK-36096
OBJECT_ID      = 2025-286AA
CENTER_NAME    = EARTH
REF_FRAME      = TEME
TIME_SYSTEM    = UTC
MEAN_ELEMENT_THEORY = SGP/SGP4

EPOCH          = 2025-12-26T14:00:04.000032
MEAN_MOTION    = 15.55030570
ECCENTRICITY   = .00010143
INCLINATION    = 53.1591
RA_OF_ASC_NODE = 341.4943
ARG_OF_PERICENTER = 82.2158
MEAN_ANOMALY   = 323.8990

EPHEMERIS_TYPE = 0
CLASSIFICATION_TYPE = U
NORAD_CAT_ID   = 66949
ELEMENT_SET_NO = 999
REV_AT_EPOCH   = 421
BSTAR          = -.34054275E-1
MEAN_MOTION_DOT = -.20733E-1
MEAN_MOTION_DDOT = 0

CCSDS_OMM_VERS = 2.0
CREATION_DATE  = 
ORIGINATOR     = 

OBJECT_NAME    = STARLINK-36111
OBJECT_ID      = 2025-286AB
CENTER_NAME    = EARTH
REF_FRAME      = TEME
TIME_SYSTEM    = UTC
MEAN_ELEMENT_THEORY = SGP/SGP4

EPOCH          = 2025-12-26T14:00:04.000032
MEAN_MOTION    = 15.55025009
ECCENTRICITY   = .00011439
INCLINATION    = 53.1591
RA_OF_ASC_NODE = 341.4866
ARG_OF_PERICENTER = 74.9913
MEAN_ANOMALY   = 334.9580

EPHEMERIS_TYPE = 0
CLASSIFICATION_TYPE = U
NORAD_CAT_ID   = 66950
ELEMENT_SET_NO = 999
REV_AT_EPOCH   = 421
BSTAR          = -.33887705E-1
MEAN_MOTION_DOT = -.2063958E-1
MEAN_MOTION_DDOT = 0

CCSDS_OMM_VERS = 2.0
CREATION_DATE  = 
ORIGINATOR     = 

OBJECT_NAME    = STARLINK-35999
OBJECT_ID      = 2025-286AC
CENTER_NAME    = EARTH
REF_FRAME      = TEME
TIME_SYSTEM    = UTC
MEAN_ELEMENT_THEORY = SGP/SGP4

EPOCH          = 2025-12-26T14:00:04.000032
MEAN_MOTION    = 15.55026015
ECCENTRICITY   = .00009099
INCLINATION    = 53.1589
RA_OF_ASC_NODE = 341.4823
ARG_OF_PERICENTER = 96.8705
MEAN_ANOMALY   = 314.9963

EPHEMERIS_TYPE = 0
CLASSIFICATION_TYPE = U
NORAD_CAT_ID   = 66951
ELEMENT_SET_NO = 999
REV_AT_EPOCH   = 421
BSTAR          = -.33880385E-1
MEAN_MOTION_DOT = -.2063486E-1
MEAN_MOTION_DDOT = 0

